OBJECT_NAME,OBJECT_ID,EPOCH,MEAN_MOTION,ECCENTRICITY,INCLINATION,RA_OF_ASC_NODE,ARG_OF_PERICENTER,MEAN_ANOMALY,EPHEMERIS_TYPE,CLASSIFICATION_TYPE,NORAD_CAT_ID,ELEMENT_SET_NO,REV_AT_EPOCH,BSTAR,MEAN_MOTION_DOT,MEAN_MOTION_DDOT
ONEWEB-0531,2022-138AK,2026-05-23T21:57:45.562752,13.20771877,.0002235,87.9171,279.2750,121.7393,238.3959,0,U,54146,999,17610,.61192E-4,.38E-6,0
ONEWEB-0535,2022-138AL,2026-05-24T04:43:42.210048,13.19725422,.0002087,87.9158,309.7395,100.4318,259.7050,0,U,54147,999,17367,-.81925E-4,-.2E-6,0
ONEWEB-0536,2022-138AM,2026-05-24T03:05:35.403936,13.20772202,.0002219,87.9161,279.2572,126.5513,233.5825,0,U,54148,999,17612,-.19276E-3,-.65E-6,0
GONETS-M 23,2022-139A,2026-05-24T02:43:42.790080,12.42889710,.0020536,82.5085,3.2572,275.0444,84.8292,0,U,54150,999,16265,.34454E-4,.15E-6,0
GONETS-M 24,2022-139B,2026-05-24T04:00:54.995616,12.42890284,.0015834,82.5001,2.3002,286.2400,73.6938,0,U,54151,999,16266,.2264E-4,.13E-6,0
GONETS-M 25,2022-139C,2026-05-24T03:41:16.255104,12.42889263,.0019736,82.5066,2.9821,284.2968,75.5920,0,U,54152,999,16266,-.60248E-4,.1E-7,0
SKIF-D,2022-139D,2026-05-24T06:34:04.657728,5.00435639,.0007378,89.9543,96.6746,209.4053,150.5897,0,U,54153,999,6291,0,.17E-6,0
STARLINK-5290,2022-141A,2026-05-23T23:25:13.872000,15.08838733,.000126,53.2172,36.0962,103.8159,256.2973,0,U,54157,999,19708,.6514E-5,-.184E-5,0
STARLINK-5297,2022-141B,2026-05-23T23:50:23.178912,15.08836444,.0001528,53.2159,36.2015,67.5196,292.5957,0,U,54158,999,19708,.38039E-5,-.227E-5,0
STARLINK-5294,2022-141C,2026-05-23T23:45:04.095072,15.08844874,.0001591,53.2164,36.1890,93.5102,266.6072,0,U,54159,999,19708,.9976E-4,.13E-4,0
STARLINK-5233,2022-141D,2026-05-23T20:05:48.000768,15.08842606,.0001331,53.2175,351.7380,88.4630,271.6515,0,U,54160,999,19769,.27594E-4,.151E-5,0
STARLINK-5269,2022-141E,2026-05-24T02:57:13.738752,15.08837733,.0001471,53.2166,35.5922,87.3731,272.7430,0,U,54161,999,19710,-.87154E-6,-.302E-5,0
STARLINK-5273,2022-141F,2026-05-23T23:34:27.977664,15.08836676,.0001368,53.2161,36.1325,96.2109,263.9039,0,U,54162,999,19708,.17299E-4,-.13E-6,0
STARLINK-5161,2022-141G,2026-05-23T23:51:43.096320,15.08839999,.0001446,53.2164,26.2343,84.8388,275.2769,0,U,54163,999,19722,.2565E-4,.12E-5,0
STARLINK-5278,2022-141H,2026-05-24T01:32:24.336384,15.08841793,.0001348,53.2166,25.9591,89.3607,270.7539,0,U,54164,999,19723,.40722E-4,.36E-5,0
STARLINK-5279,2022-141J,2026-05-24T02:39:55.880352,15.08839886,.0001357,53.2169,35.5167,88.8251,271.2896,0,U,54165,999,19710,-.36749E-4,-.873E-5,0
STARLINK-5280,2022-141K,2026-05-23T23:46:24.718368,15.08839768,.0001515,53.2159,26.2114,89.1696,270.9470,0,U,54166,999,19722,.279E-4,.156E-5,0
STARLINK-5243,2022-141L,2026-05-23T23:02:38.014944,15.08832131,.0001384,53.2171,35.9979,97.1175,262.9975,0,U,54167,999,19708,.38418E-4,.323E-5,0
STARLINK-5245,2022-141M,2026-05-24T01:16:29.638848,15.08837816,.0001401,53.2157,25.8928,91.1544,268.9608,0,U,54168,999,19723,.32271E-4,.226E-5,0
STARLINK-5282,2022-141N,2026-05-23T22:26:49.043040,15.08842022,.000149,53.2167,25.8787,90.6506,269.4657,0,U,54169,999,19722,.37996E-4,.317E-5,0
STARLINK-5155,2022-141P,2026-05-23T23:35:49.413984,15.08833841,.0001342,53.2163,26.1672,87.5723,272.5423,0,U,54170,999,19722,.12042E-3,.1629E-4,0
STARLINK-5117,2022-141R,2026-05-23T21:49:48.092160,15.08837058,.0001463,53.2165,26.4168,88.9811,271.1349,0,U,54172,999,19721,.34228E-4,.257E-5,0
STARLINK-5242,2022-141S,2026-05-23T22:32:07.629216,15.08837991,.00013,53.2169,25.8954,90.6629,269.4512,0,U,54173,999,19722,.23247E-4,.82E-6,0
STARLINK-5248,2022-141T,2026-05-23T19:31:18.801120,15.08860213,.00015,53.2153,331.6201,88.6290,271.4873,0,U,54174,999,19797,-.266E-3,-.4521E-4,0
STARLINK-5256,2022-141U,2026-05-23T23:30:29.595744,15.08835550,.000126,53.2159,26.1433,91.0083,269.1053,0,U,54175,999,19722,.49206E-4,.495E-5,0
STARLINK-5154,2022-141V,2026-05-23T23:09:16.022592,15.08838213,.0001382,53.2158,26.0509,74.8285,285.2859,0,U,54176,999,19722,.12907E-4,-.83E-6,0
STARLINK-5186,2022-141W,2026-05-23T23:19:52.863168,15.08838184,.0001314,53.2166,26.0961,92.0113,268.1030,0,U,54177,999,19722,.18691E-4,.1E-6,0
STARLINK-5164,2022-141X,2026-05-24T01:58:48.366336,15.08840553,.000139,53.2161,25.3470,90.5894,269.5257,0,U,54178,999,19724,.31035E-4,.206E-5,0
STARLINK-5122,2022-141Y,2026-05-23T23:14:34.491264,15.08837093,.0001398,53.2169,26.0735,92.6327,267.4825,0,U,54179,999,19722,.99611E-5,-.129E-5,0
STARLINK-5227,2022-141AA,2026-05-24T02:09:25.860096,15.08833223,.0001295,53.2147,25.4107,75.0330,285.0806,0,U,54181,999,19724,-.17941E-4,-.573E-5,0
STARLINK-5231,2022-141AB,2026-05-24T00:00:53.352000,15.08839991,.0001255,53.2166,355.6712,86.8312,273.2823,0,U,54182,999,19765,.70349E-4,.832E-5,0
