ONEWEB-0531             
1 54146U 22138AK  26143.91511068  .00000038  00000+0  61192-4 0  9996
2 54146  87.9171 279.2750 0002235 121.7393 238.3959 13.20771877176102
ONEWEB-0535             
1 54147U 22138AL  26144.19701632 -.00000020  00000+0 -81925-4 0  9995
2 54147  87.9158 309.7395 0002087 100.4318 259.7050 13.19725422173679
ONEWEB-0536             
1 54148U 22138AM  26144.12888199 -.00000065  00000+0 -19276-3 0  9991
2 54148  87.9161 279.2572 0002219 126.5513 233.5825 13.20772202176128
GONETS-M 23             
1 54150U 22139A   26144.11368970  .00000015  00000+0  34454-4 0  9993
2 54150  82.5085   3.2572 0020536 275.0444  84.8292 12.42889710162651
GONETS-M 24             
1 54151U 22139B   26144.16730319  .00000013  00000+0  22640-4 0  9991
2 54151  82.5001   2.3002 0015834 286.2400  73.6938 12.42890284162661
GONETS-M 25             
1 54152U 22139C   26144.15366036  .00000001  00000+0 -60248-4 0  9996
2 54152  82.5066   2.9821 0019736 284.2968  75.5920 12.42889263162667
SKIF-D                  
1 54153U 22139D   26144.27366502  .00000017  00000+0  00000+0 0  9999
2 54153  89.9543  96.6746 0007378 209.4053 150.5897  5.00435639 62912
STARLINK-5290           
1 54157U 22141A   26143.97585500 -.00000184  00000+0  65140-5 0  9991
2 54157  53.2172  36.0962 0001260 103.8159 256.2973 15.08838733197081
STARLINK-5297           
1 54158U 22141B   26143.99332383 -.00000227  00000+0  38039-5 0  9998
2 54158  53.2159  36.2015 0001528  67.5196 292.5957 15.08836444197084
STARLINK-5294           
1 54159U 22141C   26143.98963073  .00001300  00000+0  99760-4 0  9993
2 54159  53.2164  36.1890 0001591  93.5102 266.6072 15.08844874197083
STARLINK-5233           
1 54160U 22141D   26143.83736112  .00000151  00000+0  27594-4 0  9990
2 54160  53.2175 351.7380 0001331  88.4630 271.6515 15.08842606197694
STARLINK-5269           
1 54161U 22141E   26144.12307568 -.00000302  00000+0 -87154-6 0  9993
2 54161  53.2166  35.5922 0001471  87.3731 272.7430 15.08837733197108
STARLINK-5273           
1 54162U 22141F   26143.98226826 -.00000013  00000+0  17299-4 0  9993
2 54162  53.2161  36.1325 0001368  96.2109 263.9039 15.08836676197080
STARLINK-5161           
1 54163U 22141G   26143.99424880  .00000120  00000+0  25650-4 0  9993
2 54163  53.2164  26.2343 0001446  84.8388 275.2769 15.08839999197226
STARLINK-5278           
1 54164U 22141H   26144.06417056  .00000360  00000+0  40722-4 0  9993
2 54164  53.2166  25.9591 0001348  89.3607 270.7539 15.08841793197236
STARLINK-5279           
1 54165U 22141J   26144.11106343 -.00000873  00000+0 -36749-4 0  9999
2 54165  53.2169  35.5167 0001357  88.8251 271.2896 15.08839886197103
STARLINK-5280           
1 54166U 22141K   26143.99056387  .00000156  00000+0  27900-4 0  9998
2 54166  53.2159  26.2114 0001515  89.1696 270.9470 15.08839768197221
STARLINK-5243           
1 54167U 22141L   26143.96016221  .00000323  00000+0  38418-4 0  9991
2 54167  53.2171  35.9979 0001384  97.1175 262.9975 15.08832131197089
STARLINK-5245           
1 54168U 22141M   26144.05312082  .00000226  00000+0  32271-4 0  9990
2 54168  53.2157  25.8928 0001401  91.1544 268.9608 15.08837816197231
STARLINK-5282           
1 54169U 22141N   26143.93528985  .00000317  00000+0  37996-4 0  9998
2 54169  53.2167  25.8787 0001490  90.6506 269.4657 15.08842022197220
STARLINK-5155           
1 54170U 22141P   26143.98321081  .00001629  00000+0  12042-3 0  9994
2 54170  53.2163  26.1672 0001342  87.5723 272.5423 15.08833841197222
STARLINK-5117           
1 54172U 22141R   26143.90958440  .00000257  00000+0  34228-4 0  9990
2 54172  53.2165  26.4168 0001463  88.9811 271.1349 15.08837058197211
STARLINK-5242           
1 54173U 22141S   26143.93897719  .00000082  00000+0  23247-4 0  9990
2 54173  53.2169  25.8954 0001300  90.6629 269.4512 15.08837991197228
STARLINK-5248           
1 54174U 22141T   26143.81341205 -.00004521  00000+0 -26600-3 0  9991
2 54174  53.2153 331.6201 0001500  88.6290 271.4873 15.08860213197976
STARLINK-5256           
1 54175U 22141U   26143.97950921  .00000495  00000+0  49206-4 0  9992
2 54175  53.2159  26.1433 0001260  91.0083 269.1053 15.08835550197225
STARLINK-5154           
1 54176U 22141V   26143.96476878 -.00000083  00000+0  12907-4 0  9998
2 54176  53.2158  26.0509 0001382  74.8285 285.2859 15.08838213197228
STARLINK-5186           
1 54177U 22141W   26143.97213962  .00000010  00000+0  18691-4 0  9998
2 54177  53.2166  26.0961 0001314  92.0113 268.1030 15.08838184197225
STARLINK-5164           
1 54178U 22141X   26144.08250424  .00000206  00000+0  31035-4 0  9990
2 54178  53.2161  25.3470 0001390  90.5894 269.5257 15.08840553197242
STARLINK-5122           
1 54179U 22141Y   26143.96845476 -.00000129  00000+0  99611-5 0  9994
2 54179  53.2169  26.0735 0001398  92.6327 267.4825 15.08837093197226
STARLINK-5227           
1 54181U 22141AA  26144.08988264 -.00000573  00000+0 -17941-4 0  9993
2 54181  53.2147  25.4107 0001295  75.0330 285.0806 15.08833223197244
STARLINK-5231           
1 54182U 22141AB  26144.00061750  .00000832  00000+0  70349-4 0  9995
2 54182  53.2166 355.6712 0001255  86.8312 273.2823 15.08839991197653
